{
  "type": "FeatureCollection",
  "features": [
    {
      "type": "Feature",
      "properties": {
        "norad_id": 32275,
        "name": "COSMOS 2433 (720)",
        "group": "glo-ops",
        "lat": 46.899390777605284,
        "lon": -9.289544091097078,
        "alt_km": 19136.533197408833,
        "timestamp": "2025-12-23T11:34:48.425572+00:00",
        "meta_object_name": "COSMOS 2433 (720)",
        "meta_object_id": "2007-052A",
        "meta_epoch": "2025-12-22T00:07:36.568704",
        "meta_mean_motion": 2.13104226,
        "meta_eccentricity": 0.00051704,
        "meta_inclination": 65.6781,
        "meta_ra_of_asc_node": 321.8942,
        "meta_arg_of_pericenter": 255.846,
        "meta_mean_anomaly": 104.0915,
        "meta_ephemeris_type": 0,
        "meta_classification_type": "U",
        "meta_norad_cat_id": 32275,
        "meta_element_set_no": 999,
        "meta_rev_at_epoch": 14128,
        "meta_bstar": 0,
        "meta_mean_motion_dot": -4.2e-07,
        "meta_mean_motion_ddot": 0,
        "tle_line1": "1 32275U 07052A   25356.00528436 -.00000042  00000+0  00000+0 0  9997",
        "tle_line2": "2 32275  65.6781 321.8942 0005170 255.8460 104.0915  2.13104226141283"
      },
      "geometry": {
        "type": "Point",
        "coordinates": [
          -9.289544091097078,
          46.899390777605284
        ]
      }
    },
    {
      "type": "Feature",
      "properties": {
        "norad_id": 32276,
        "name": "COSMOS 2432 (719)",
        "group": "glo-ops",
        "lat": -2.059577111480414,
        "lon": -38.977891111557,
        "alt_km": 19109.55820603508,
        "timestamp": "2025-12-23T11:34:48.425597+00:00",
        "meta_object_name": "COSMOS 2432 (719)",
        "meta_object_id": "2007-052B",
        "meta_epoch": "2025-12-22T03:59:43.764000",
        "meta_mean_motion": 2.13103428,
        "meta_eccentricity": 0.00113428,
        "meta_inclination": 65.6941,
        "meta_ra_of_asc_node": 322.0132,
        "meta_arg_of_pericenter": 314.3945,
        "meta_mean_anomaly": 113.6439,
        "meta_ephemeris_type": 0,
        "meta_classification_type": "U",
        "meta_norad_cat_id": 32276,
        "meta_element_set_no": 999,
        "meta_rev_at_epoch": 14131,
        "meta_bstar": 0,
        "meta_mean_motion_dot": -4.2e-07,
        "meta_mean_motion_ddot": 0,
        "tle_line1": "1 32276U 07052B   25356.16647875 -.00000042  00000+0  00000+0 0  9994",
        "tle_line2": "2 32276  65.6941 322.0132 0011342 314.3945 113.6439  2.13103428141317"
      },
      "geometry": {
        "type": "Point",
        "coordinates": [
          -38.977891111557,
          -2.059577111480414
        ]
      }
    },
    {
      "type": "Feature",
      "properties": {
        "norad_id": 32393,
        "name": "COSMOS 2434 (721)",
        "group": "glo-ops",
        "lat": -48.54504285327978,
        "lon": 164.81299475306582,
        "alt_km": 19143.272375818004,
        "timestamp": "2025-12-23T11:34:48.425610+00:00",
        "meta_object_name": "COSMOS 2434 (721)",
        "meta_object_id": "2007-065A",
        "meta_epoch": "2025-12-22T08:26:32.754336",
        "meta_mean_motion": 2.13101487,
        "meta_eccentricity": 0.00048131,
        "meta_inclination": 64.3157,
        "meta_ra_of_asc_node": 197.8788,
        "meta_arg_of_pericenter": 72.4714,
        "meta_mean_anomaly": 83.8697,
        "meta_ephemeris_type": 0,
        "meta_classification_type": "U",
        "meta_norad_cat_id": 32393,
        "meta_element_set_no": 999,
        "meta_rev_at_epoch": 14000,
        "meta_bstar": 0,
        "meta_mean_motion_dot": 9.5e-07,
        "meta_mean_motion_ddot": 0,
        "tle_line1": "1 32393U 07065A   25356.35176799  .00000095  00000+0  00000+0 0  9998",
        "tle_line2": "2 32393  64.3157 197.8788 0004813  72.4714  83.8697  2.13101487140000"
      },
      "geometry": {
        "type": "Point",
        "coordinates": [
          164.81299475306582,
          -48.54504285327978
        ]
      }
    },
    {
      "type": "Feature",
      "properties": {
        "norad_id": 32395,
        "name": "COSMOS 2436 (723)",
        "group": "glo-ops",
        "lat": 61.390929934539486,
        "lon": -100.14206967184215,
        "alt_km": 19105.322546899322,
        "timestamp": "2025-12-23T11:34:48.425621+00:00",
        "meta_object_name": "COSMOS 2436 (723)",
        "meta_object_id": "2007-065C",
        "meta_epoch": "2025-12-22T05:06:38.797056",
        "meta_mean_motion": 2.13100243,
        "meta_eccentricity": 0.00178088,
        "meta_inclination": 64.3245,
        "meta_ra_of_asc_node": 197.9539,
        "meta_arg_of_pericenter": 10.2103,
        "meta_mean_anomaly": 172.6703,
        "meta_ephemeris_type": 0,
        "meta_classification_type": "U",
        "meta_norad_cat_id": 32395,
        "meta_element_set_no": 999,
        "meta_rev_at_epoch": 13995,
        "meta_bstar": 0,
        "meta_mean_motion_dot": 9.5e-07,
        "meta_mean_motion_ddot": 0,
        "tle_line1": "1 32395U 07065C   25356.21294904  .00000095  00000+0  00000+0 0  9994",
        "tle_line2": "2 32395  64.3245 197.9539 0017808  10.2103 172.6703  2.13100243139951"
      },
      "geometry": {
        "type": "Point",
        "coordinates": [
          -100.14206967184215,
          61.390929934539486
        ]
      }
    },
    {
      "type": "Feature",
      "properties": {
        "norad_id": 36111,
        "name": "COSMOS 2456 (730)",
        "group": "glo-ops",
        "lat": 62.78539885444335,
        "lon": -168.4962205712006,
        "alt_km": 19131.845234882625,
        "timestamp": "2025-12-23T11:34:48.425632+00:00",
        "meta_object_name": "COSMOS 2456 (730)",
        "meta_object_id": "2009-070A",
        "meta_epoch": "2025-12-22T12:57:22.117248",
        "meta_mean_motion": 2.13103796,
        "meta_eccentricity": 0.00035899,
        "meta_inclination": 64.905,
        "meta_ra_of_asc_node": 77.0029,
        "meta_arg_of_pericenter": 294.9514,
        "meta_mean_anomaly": 162.8071,
        "meta_ephemeris_type": 0,
        "meta_classification_type": "U",
        "meta_norad_cat_id": 36111,
        "meta_element_set_no": 999,
        "meta_rev_at_epoch": 12466,
        "meta_bstar": 0,
        "meta_mean_motion_dot": -4e-08,
        "meta_mean_motion_ddot": 0,
        "tle_line1": "1 36111U 09070A   25356.53983932 -.00000004  00000+0  00000+0 0  9994",
        "tle_line2": "2 36111  64.9050  77.0029 0003589 294.9514 162.8071  2.13103796124668"
      },
      "geometry": {
        "type": "Point",
        "coordinates": [
          -168.4962205712006,
          62.78539885444335
        ]
      }
    },
    {
      "type": "Feature",
      "properties": {
        "norad_id": 36112,
        "name": "COSMOS 2457 (733)",
        "group": "glo-ops",
        "lat": -43.956950126499805,
        "lon": -76.3312260230588,
        "alt_km": 19130.78982782331,
        "timestamp": "2025-12-23T11:34:48.425644+00:00",
        "meta_object_name": "COSMOS 2457 (733)",
        "meta_object_id": "2009-070B",
        "meta_epoch": "2025-12-23T04:05:37.472640",
        "meta_mean_motion": 2.13101144,
        "meta_eccentricity": 0.0004498,
        "meta_inclination": 64.891,
        "meta_ra_of_asc_node": 76.8287,
        "meta_arg_of_pericenter": 163.0286,
        "meta_mean_anomaly": 187.6554,
        "meta_ephemeris_type": 0,
        "meta_classification_type": "U",
        "meta_norad_cat_id": 36112,
        "meta_element_set_no": 999,
        "meta_rev_at_epoch": 12467,
        "meta_bstar": 0,
        "meta_mean_motion_dot": -2e-08,
        "meta_mean_motion_ddot": 0,
        "tle_line1": "1 36112U 09070B   25357.17057260 -.00000002  00000+0  00000+0 0  9990",
        "tle_line2": "2 36112  64.8910  76.8287 0004498 163.0286 187.6554  2.13101144124675"
      },
      "geometry": {
        "type": "Point",
        "coordinates": [
          -76.3312260230588,
          -43.956950126499805
        ]
      }
    },
    {
      "type": "Feature",
      "properties": {
        "norad_id": 36402,
        "name": "COSMOS 2460 (732)",
        "group": "glo-ops",
        "lat": -43.92929045794013,
        "lon": 166.40283616111665,
        "alt_km": 19131.1385072048,
        "timestamp": "2025-12-23T11:34:48.425655+00:00",
        "meta_object_name": "COSMOS 2460 (732)",
        "meta_object_id": "2010-007C",
        "meta_epoch": "2025-12-22T12:30:28.820160",
        "meta_mean_motion": 2.1310637,
        "meta_eccentricity": 0.00025026,
        "meta_inclination": 65.5243,
        "meta_ra_of_asc_node": 320.4432,
        "meta_arg_of_pericenter": 283.7046,
        "meta_mean_anomaly": 288.4145,
        "meta_ephemeris_type": 0,
        "meta_classification_type": "U",
        "meta_norad_cat_id": 36402,
        "meta_element_set_no": 999,
        "meta_rev_at_epoch": 12296,
        "meta_bstar": 0,
        "meta_mean_motion_dot": -3.9e-07,
        "meta_mean_motion_ddot": 0,
        "tle_line1": "1 36402U 10007C   25356.52116690 -.00000039  00000+0  00000+0 0  9995",
        "tle_line2": "2 36402  65.5243 320.4432 0002502 283.7046 288.4145  2.13106370122964"
      },
      "geometry": {
        "type": "Point",
        "coordinates": [
          166.40283616111665,
          -43.92929045794013
        ]
      }
    }
  ]
}